start=new Date('2022-03-23T00:00:00.000Z').valueOf();
sats=[{"FILE":"3369829","MEAN_MOTION":"15.06392255","TLE_LINE2":"2 45408  53.0538 187.4143 0001529  64.3698 295.7449 15.06392255111188","RA_OF_ASC_NODE":"187.4143","ECCENTRICITY":"0.00015290","OBJECT_NAME":"STARLINK-1278","PERIOD":"95.593","SEMIMAJOR_AXIS":"6925.372","INCLINATION":"53.0538","ELEMENT_SET_NO":"999","NORAD_CAT_ID":"45408","RCS_SIZE":"LARGE","TIME_SYSTEM":"UTC","LAUNCH_DATE":"2020-03-18","BSTAR":"-0.00006205700000","EPOCH":"2022-03-22T13:58:33.801024","CENTER_NAME":"EARTH","PERIAPSIS":"546.178","GP_ID":"199393509","SITE":"AFETR","DECAY_DATE":null,"OBJECT_ID":"2020-019BA","MEAN_MOTION_DOT":"-0.00001206","ARG_OF_PERICENTER":"64.3698","REF_FRAME":"TEME","REV_AT_EPOCH":"11118","MEAN_ANOMALY":"295.7449","MEAN_MOTION_DDOT":"0.0000000000000","CLASSIFICATION_TYPE":"U","TLE_LINE1":"1 45408U 20019BA  22081.58233566 -.00001206  00000-0 -62057-4 0  9999","APOAPSIS":"548.296","OBJECT_TYPE":"PAYLOAD","MEAN_ELEMENT_THEORY":"SGP4","COUNTRY_CODE":"US","EPHEMERIS_TYPE":"0"},{"MEAN_ELEMENT_THEORY":"SGP4","EPHEMERIS_TYPE":"0","COUNTRY_CODE":"US","APOAPSIS":"548.458","MEAN_MOTION_DDOT":"0.0000000000000","MEAN_ANOMALY":"283.0499","CLASSIFICATION_TYPE":"U","TLE_LINE1":"1 45409U 20019BB  22081.57772481 -.00001575  00000-0 -86893-4 0  9996","OBJECT_TYPE":"PAYLOAD","OBJECT_ID":"2020-019BB","MEAN_MOTION_DOT":"-0.00001575","ARG_OF_PERICENTER":"77.0684","REF_FRAME":"TEME","REV_AT_EPOCH":"11160","SITE":"AFETR","GP_ID":"199426526","DECAY_DATE":null,"PERIAPSIS":"546.051","EPOCH":"2022-03-22T13:51:55.423584","CENTER_NAME":"EARTH","RCS_SIZE":"LARGE","TIME_SYSTEM":"UTC","NORAD_CAT_ID":"45409","LAUNCH_DATE":"2020-03-18","BSTAR":"-0.00008689300000","ECCENTRICITY":"0.00017380","OBJECT_NAME":"STARLINK-1282","SEMIMAJOR_AXIS":"6925.389","ELEMENT_SET_NO":"999","INCLINATION":"53.0522","PERIOD":"95.593","TLE_LINE2":"2 45409  53.0522 157.4379 0001738  77.0684 283.0499 15.06386674111608","RA_OF_ASC_NODE":"157.4379","FILE":"3370190","MEAN_MOTION":"15.06386674"},{"OBJECT_NAME":"STARLINK-1285","ECCENTRICITY":"0.00008490","PERIOD":"90.918","SEMIMAJOR_AXIS":"6697.726","ELEMENT_SET_NO":"999","INCLINATION":"53.0491","FILE":"3369829","MEAN_MOTION":"15.83841323","TLE_LINE2":"2 45410  53.0491  32.4189 0000849 277.0002  83.0924 15.83841323113317","RA_OF_ASC_NODE":"32.4189","EPOCH":"2022-03-22T08:02:31.312032","CENTER_NAME":"EARTH","PERIAPSIS":"319.023","NORAD_CAT_ID":"45410","TIME_SYSTEM":"UTC","RCS_SIZE":"LARGE","LAUNCH_DATE":"2020-03-18","BSTAR":"0.00002515400000","OBJECT_ID":"2020-019BC","ARG_OF_PERICENTER":"277.0002","MEAN_MOTION_DOT":"0.00004975","REF_FRAME":"TEME","REV_AT_EPOCH":"11331","GP_ID":"199394016","SITE":"AFETR","DECAY_DATE":null,"MEAN_ELEMENT_THEORY":"SGP4","COUNTRY_CODE":"US","EPHEMERIS_TYPE":"0","MEAN_ANOMALY":"83.0924","MEAN_MOTION_DDOT":"0.0000000000000","TLE_LINE1":"1 45410U 20019BC  22081.33508463  .00004975  00000-0  25154-4 0  9997","CLASSIFICATION_TYPE":"U","APOAPSIS":"320.160","OBJECT_TYPE":"PAYLOAD"},{"ECCENTRICITY":"0.00013660","OBJECT_NAME":"STARLINK-1293","SEMIMAJOR_AXIS":"6925.365","ELEMENT_SET_NO":"999","INCLINATION":"53.0540","PERIOD":"95.592","TLE_LINE2":"2 45411  53.0540 156.7712 0001366  71.5752 288.5385 15.06394693111644","RA_OF_ASC_NODE":"156.7712","FILE":"3370190","MEAN_MOTION":"15.06394693","PERIAPSIS":"546.284","EPOCH":"2022-03-22T17:24:14.616288","CENTER_NAME":"EARTH","TIME_SYSTEM":"UTC","RCS_SIZE":"LARGE","NORAD_CAT_ID":"45411","LAUNCH_DATE":"2020-03-18","BSTAR":"-0.00012230000000","OBJECT_ID":"2020-019BD","ARG_OF_PERICENTER":"71.5752","MEAN_MOTION_DOT":"-0.00002102","REF_FRAME":"TEME","REV_AT_EPOCH":"11164","SITE":"AFETR","GP_ID":"199425528","DECAY_DATE":null,"MEAN_ELEMENT_THEORY":"SGP4","EPHEMERIS_TYPE":"0","COUNTRY_CODE":"US","APOAPSIS":"548.176","MEAN_ANOMALY":"288.5385","MEAN_MOTION_DDOT":"0.0000000000000","TLE_LINE1":"1 45411U 20019BD  22081.72516917 -.00002102  00000-0 -12230-3 0  9996","CLASSIFICATION_TYPE":"U","OBJECT_TYPE":"PAYLOAD"},{"COUNTRY_CODE":"US","EPHEMERIS_TYPE":"0","MEAN_ELEMENT_THEORY":"SGP4","OBJECT_TYPE":"PAYLOAD","TLE_LINE1":"1 45412U 20019BE  22081.89103368 -.00001481  00000-0 -80558-4 0  9995","CLASSIFICATION_TYPE":"U","MEAN_MOTION_DDOT":"0.0000000000000","MEAN_ANOMALY":"302.5683","APOAPSIS":"548.159","REV_AT_EPOCH":"11164","REF_FRAME":"TEME","ARG_OF_PERICENTER":"57.5439","MEAN_MOTION_DOT":"-0.00001481","OBJECT_ID":"2020-019BE","DECAY_DATE":null,"GP_ID":"199426278","SITE":"AFETR","CENTER_NAME":"EARTH","EPOCH":"2022-03-22T21:23:05.309952","PERIAPSIS":"546.260","BSTAR":"-0.00008055800000","LAUNCH_DATE":"2020-03-18","NORAD_CAT_ID":"45412","RCS_SIZE":"LARGE","TIME_SYSTEM":"UTC","PERIOD":"95.592","INCLINATION":"53.0531","ELEMENT_SET_NO":"999","SEMIMAJOR_AXIS":"6925.344","OBJECT_NAME":"STARLINK-1296","ECCENTRICITY":"0.00013710","MEAN_MOTION":"15.06401454","FILE":"3370190","RA_OF_ASC_NODE":"156.0467","TLE_LINE2":"2 45412  53.0531 156.0467 0001371  57.5439 302.5683 15.06401454111649"},{"PERIAPSIS":"546.353","CENTER_NAME":"EARTH","EPOCH":"2022-03-22T14:07:51.767040","BSTAR":"-0.00008858100000","LAUNCH_DATE":"2020-03-18","TIME_SYSTEM":"UTC","RCS_SIZE":"LARGE","NORAD_CAT_ID":"45413","INCLINATION":"53.0536","ELEMENT_SET_NO":"999","SEMIMAJOR_AXIS":"6925.382","PERIOD":"95.593","ECCENTRICITY":"0.00012900","OBJECT_NAME":"STARLINK-1298","RA_OF_ASC_NODE":"157.3944","TLE_LINE2":"2 45413  53.0536 157.3944 0001290  75.3022 284.8110 15.06389210111692","MEAN_MOTION":"15.06389210","FILE":"3369829","EPHEMERIS_TYPE":"0","COUNTRY_CODE":"US","MEAN_ELEMENT_THEORY":"SGP4","OBJECT_TYPE":"PAYLOAD","APOAPSIS":"548.140","TLE_LINE1":"1 45413U 20019BF  22081.58879360 -.00001600  00000-0 -88581-4 0  9991","CLASSIFICATION_TYPE":"U","MEAN_ANOMALY":"284.8110","MEAN_MOTION_DDOT":"0.0000000000000","REV_AT_EPOCH":"11169","REF_FRAME":"TEME","ARG_OF_PERICENTER":"75.3022","MEAN_MOTION_DOT":"-0.00001600","OBJECT_ID":"2020-019BF","DECAY_DATE":null,"SITE":"AFETR","GP_ID":"199393265"},{"MEAN_MOTION_DDOT":"0.0000000000000","MEAN_ANOMALY":"280.6830","CLASSIFICATION_TYPE":"U","TLE_LINE1":"1 45414U 20019BG  22081.90578126 -.00002163  00000-0 -12638-3 0  9998","APOAPSIS":"548.189","OBJECT_TYPE":"PAYLOAD","MEAN_ELEMENT_THEORY":"SGP4","COUNTRY_CODE":"US","EPHEMERIS_TYPE":"0","GP_ID":"199426777","SITE":"AFETR","DECAY_DATE":null,"OBJECT_ID":"2020-019BG","MEAN_MOTION_DOT":"-0.00002163","ARG_OF_PERICENTER":"79.4315","REF_FRAME":"TEME","REV_AT_EPOCH":"11163","NORAD_CAT_ID":"45414","TIME_SYSTEM":"UTC","RCS_SIZE":"LARGE","LAUNCH_DATE":"2020-03-18","BSTAR":"-0.00012638000000","EPOCH":"2022-03-22T21:44:19.500864","CENTER_NAME":"EARTH","PERIAPSIS":"546.281","FILE":"3370190","MEAN_MOTION":"15.06392946","TLE_LINE2":"2 45414  53.0532 155.9682 0001378  79.4315 280.6830 15.06392946111636","RA_OF_ASC_NODE":"155.9682","ECCENTRICITY":"0.00013780","OBJECT_NAME":"STARLINK-1309","PERIOD":"95.593","SEMIMAJOR_AXIS":"6925.370","ELEMENT_SET_NO":"999","INCLINATION":"53.0532"},{"ECCENTRICITY":"0.00015230","OBJECT_NAME":"STARLINK-1316","PERIOD":"95.592","SEMIMAJOR_AXIS":"6925.333","INCLINATION":"53.0535","ELEMENT_SET_NO":"999","FILE":"3370190","MEAN_MOTION":"15.06405235","TLE_LINE2":"2 45415  53.0535 157.0418 0001523  70.1944 289.9210 15.06405235111638","RA_OF_ASC_NODE":"157.0418","EPOCH":"2022-03-22T15:59:17.321280","CENTER_NAME":"EARTH","PERIAPSIS":"546.143","NORAD_CAT_ID":"45415","RCS_SIZE":"LARGE","TIME_SYSTEM":"UTC","LAUNCH_DATE":"2020-03-18","BSTAR":"-0.00008288200000","OBJECT_ID":"2020-019BH","MEAN_MOTION_DOT":"-0.00001516","ARG_OF_PERICENTER":"70.1944","REV_AT_EPOCH":"11163","REF_FRAME":"TEME","GP_ID":"199426029","SITE":"AFETR","DECAY_DATE":null,"MEAN_ELEMENT_THEORY":"SGP4","COUNTRY_CODE":"US","EPHEMERIS_TYPE":"0","MEAN_MOTION_DDOT":"0.0000000000000","MEAN_ANOMALY":"289.9210","CLASSIFICATION_TYPE":"U","TLE_LINE1":"1 45415U 20019BH  22081.66617270 -.00001516  00000-0 -82882-4 0  9996","APOAPSIS":"548.252","OBJECT_TYPE":"PAYLOAD"},{"SITE":"AFETR","GP_ID":"199425778","DECAY_DATE":null,"OBJECT_ID":"2020-019BJ","MEAN_MOTION_DOT":"0.00001240","ARG_OF_PERICENTER":"77.3209","REV_AT_EPOCH":"11165","REF_FRAME":"TEME","APOAPSIS":"548.023","MEAN_MOTION_DDOT":"0.0000000000000","MEAN_ANOMALY":"282.7913","CLASSIFICATION_TYPE":"U","TLE_LINE1":"1 45416U 20019BJ  22081.89840453  .00001240  00000-0  10214-3 0  9994","OBJECT_TYPE":"PAYLOAD","MEAN_ELEMENT_THEORY":"SGP4","EPHEMERIS_TYPE":"0","COUNTRY_CODE":"US","TLE_LINE2":"2 45416  53.0551 156.0214 0001190  77.3209 282.7913 15.06404810111654","RA_OF_ASC_NODE":"156.0214","FILE":"3370190","MEAN_MOTION":"15.06404810","OBJECT_NAME":"STARLINK-1318","ECCENTRICITY":"0.00011900","SEMIMAJOR_AXIS":"6925.334","INCLINATION":"53.0551","ELEMENT_SET_NO":"999","PERIOD":"95.592","RCS_SIZE":"LARGE","TIME_SYSTEM":"UTC","NORAD_CAT_ID":"45416","LAUNCH_DATE":"2020-03-18","BSTAR":"0.00010214000000","PERIAPSIS":"546.375","EPOCH":"2022-03-22T21:33:42.151392","CENTER_NAME":"EARTH"},{"EPOCH":"2022-03-22T18:29:15.764640","CENTER_NAME":"EARTH","PERIAPSIS":"546.329","NORAD_CAT_ID":"45417","TIME_SYSTEM":"UTC","RCS_SIZE":"LARGE","LAUNCH_DATE":"2020-03-18","BSTAR":"-0.00010680000000","ECCENTRICITY":"0.00013240","OBJECT_NAME":"STARLINK-1286","PERIOD":"95.593","SEMIMAJOR_AXIS":"6925.381","ELEMENT_SET_NO":"999","INCLINATION":"53.0529","FILE":"3369919","MEAN_MOTION":"15.06389316","TLE_LINE2":"2 45417  53.0529 186.5876 0001324  84.7139 275.4001 15.06389316111497","RA_OF_ASC_NODE":"186.5876","MEAN_ELEMENT_THEORY":"SGP4","COUNTRY_CODE":"US","EPHEMERIS_TYPE":"0","MEAN_MOTION_DDOT":"0.0000000000000","MEAN_ANOMALY":"275.4001","CLASSIFICATION_TYPE":"U","TLE_LINE1":"1 45417U 20019BK  22081.77032135 -.00001871  00000-0 -10680-3 0  9991","APOAPSIS":"548.163","OBJECT_TYPE":"PAYLOAD","OBJECT_ID":"2020-019BK","ARG_OF_PERICENTER":"84.7139","MEAN_MOTION_DOT":"-0.00001871","REF_FRAME":"TEME","REV_AT_EPOCH":"11149","GP_ID":"199401139","SITE":"AFETR","DECAY_DATE":null}];
